[
  {
    "OBJECT_NAME": "STARLINK-32620",
    "OBJECT_ID": "24207S",
    "EPOCH": "2025-11-11T03:42:31.169952",
    "MEAN_MOTION": 15.27640101,
    "ECCENTRICITY": 0.0001608,
    "INCLINATION": 42.9975,
    "RA_OF_ASC_NODE": 231.168,
    "ARG_OF_PERICENTER": 229.0565,
    "MEAN_ANOMALY": 131.0148,
    "EPHEMERIS_TYPE": 0,
    "CLASSIFICATION_TYPE": "U",
    "NORAD_CAT_ID": 61928,
    "ELEMENT_SET_NO": 999,
    "REV_AT_EPOCH": 5659,
    "BSTAR": 0.0014272000000000002,
    "MEAN_MOTION_DOT": 0.00039293,
    "MEAN_MOTION_DDOT": 0.0,
    "TLE_LINE1": "1 61928U 24207S   25315.15452743  .00039293  00000+0  14272-2 0  9991",
    "TLE_LINE2": "2 61928  42.9975 231.1680 0001608 229.0565 131.0148 15.27640101 56599",
    "COMMENT": "Grouped by shell and plane from TLE"
  },
  {
    "OBJECT_NAME": "STARLINK-32609",
    "OBJECT_ID": "24207T",
    "EPOCH": "2025-11-11T03:31:26.148288",
    "MEAN_MOTION": 15.27622301,
    "ECCENTRICITY": 0.0001982,
    "INCLINATION": 42.9997,
    "RA_OF_ASC_NODE": 231.1108,
    "ARG_OF_PERICENTER": 265.6091,
    "MEAN_ANOMALY": 94.4534,
    "EPHEMERIS_TYPE": 0,
    "CLASSIFICATION_TYPE": "U",
    "NORAD_CAT_ID": 61929,
    "ELEMENT_SET_NO": 999,
    "REV_AT_EPOCH": 5659,
    "BSTAR": 0.0018003,
    "MEAN_MOTION_DOT": 0.00049677,
    "MEAN_MOTION_DDOT": 0.0,
    "TLE_LINE1": "1 61929U 24207T   25315.14683042  .00049677  00000+0  18003-2 0  9992",
    "TLE_LINE2": "2 61929  42.9997 231.1108 0001982 265.6091  94.4534 15.27622301 56597",
    "COMMENT": "Grouped by shell and plane from TLE"
  },
  {
    "OBJECT_NAME": "STARLINK-32420",
    "OBJECT_ID": "24207V",
    "EPOCH": "2025-11-11T04:45:13.189248",
    "MEAN_MOTION": 15.27658154,
    "ECCENTRICITY": 0.000136,
    "INCLINATION": 42.9977,
    "RA_OF_ASC_NODE": 230.6306,
    "ARG_OF_PERICENTER": 291.0957,
    "MEAN_ANOMALY": 68.9749,
    "EPHEMERIS_TYPE": 0,
    "CLASSIFICATION_TYPE": "U",
    "NORAD_CAT_ID": 61931,
    "ELEMENT_SET_NO": 999,
    "REV_AT_EPOCH": 5660,
    "BSTAR": 0.0025378,
    "MEAN_MOTION_DOT": 0.00070409,
    "MEAN_MOTION_DDOT": 0.0,
    "TLE_LINE1": "1 61931U 24207V   25315.19806932  .00070409  00000+0  25378-2 0  9995",
    "TLE_LINE2": "2 61931  42.9977 230.6306 0001360 291.0957  68.9749 15.27658154 56607",
    "COMMENT": "Grouped by shell and plane from TLE"
  },
  {
    "OBJECT_NAME": "STARLINK-32354",
    "OBJECT_ID": "24207W",
    "EPOCH": "2025-11-11T04:16:59.349216",
    "MEAN_MOTION": 15.27635208,
    "ECCENTRICITY": 0.0001533,
    "INCLINATION": 43.0021,
    "RA_OF_ASC_NODE": 234.8097,
    "ARG_OF_PERICENTER": 264.8908,
    "MEAN_ANOMALY": 95.1769,
    "EPHEMERIS_TYPE": 0,
    "CLASSIFICATION_TYPE": "U",
    "NORAD_CAT_ID": 61932,
    "ELEMENT_SET_NO": 999,
    "REV_AT_EPOCH": 5704,
    "BSTAR": 0.0017642,
    "MEAN_MOTION_DOT": 0.00048689,
    "MEAN_MOTION_DDOT": 0.0,
    "TLE_LINE1": "1 61932U 24207W   25315.17846469  .00048689  00000+0  17642-2 0  9993",
    "TLE_LINE2": "2 61932  43.0021 234.8097 0001533 264.8908  95.1769 15.27635208 57047",
    "COMMENT": "Grouped by shell and plane from TLE"
  },
  {
    "OBJECT_NAME": "STARLINK-32361",
    "OBJECT_ID": "24207X",
    "EPOCH": "2025-11-11T04:19:32.037024",
    "MEAN_MOTION": 15.27631677,
    "ECCENTRICITY": 9.34e-05,
    "INCLINATION": 42.9998,
    "RA_OF_ASC_NODE": 231.3433,
    "ARG_OF_PERICENTER": 304.9488,
    "MEAN_ANOMALY": 55.1276,
    "EPHEMERIS_TYPE": 0,
    "CLASSIFICATION_TYPE": "U",
    "NORAD_CAT_ID": 61933,
    "ELEMENT_SET_NO": 999,
    "REV_AT_EPOCH": 5659,
    "BSTAR": 0.0013411,
    "MEAN_MOTION_DOT": 0.00036885,
    "MEAN_MOTION_DDOT": 0.0,
    "TLE_LINE1": "1 61933U 24207X   25315.18023191  .00036885  00000+0  13411-2 0  9999",
    "TLE_LINE2": "2 61933  42.9998 231.3433 0000934 304.9488  55.1276 15.27631677 56592",
    "COMMENT": "Grouped by shell and plane from TLE"
  },
  {
    "OBJECT_NAME": "STARLINK-32500",
    "OBJECT_ID": "24207Z",
    "EPOCH": "2025-11-11T04:00:20.260224",
    "MEAN_MOTION": 15.27622895,
    "ECCENTRICITY": 4.18e-05,
    "INCLINATION": 43.0003,
    "RA_OF_ASC_NODE": 234.7212,
    "ARG_OF_PERICENTER": 262.4432,
    "MEAN_ANOMALY": 97.6372,
    "EPHEMERIS_TYPE": 0,
    "CLASSIFICATION_TYPE": "U",
    "NORAD_CAT_ID": 61935,
    "ELEMENT_SET_NO": 999,
    "REV_AT_EPOCH": 5655,
    "BSTAR": 0.0011205,
    "MEAN_MOTION_DOT": 0.0003074,
    "MEAN_MOTION_DDOT": 0.0,
    "TLE_LINE1": "1 61935U 24207Z   25315.16690116  .00030740  00000+0  11205-2 0  9999",
    "TLE_LINE2": "2 61935  43.0003 234.7212 0000418 262.4432  97.6372 15.27622895 56555",
    "COMMENT": "Grouped by shell and plane from TLE"
  },
  {
    "OBJECT_NAME": "STARLINK-32713",
    "OBJECT_ID": "25003A",
    "EPOCH": "2025-11-11T03:54:08.963136",
    "MEAN_MOTION": 15.27634327,
    "ECCENTRICITY": 7.63e-05,
    "INCLINATION": 42.9991,
    "RA_OF_ASC_NODE": 238.4191,
    "ARG_OF_PERICENTER": 295.8585,
    "MEAN_ANOMALY": 64.2188,
    "EPHEMERIS_TYPE": 0,
    "CLASSIFICATION_TYPE": "U",
    "NORAD_CAT_ID": 62487,
    "ELEMENT_SET_NO": 999,
    "REV_AT_EPOCH": 4852,
    "BSTAR": 0.0015365,
    "MEAN_MOTION_DOT": 0.00042332,
    "MEAN_MOTION_DDOT": 0.0,
    "TLE_LINE1": "1 62487U 25003A   25315.16260374  .00042332  00000+0  15365-2 0  9997",
    "TLE_LINE2": "2 62487  42.9991 238.4191 0000763 295.8585  64.2188 15.27634327 48527",
    "COMMENT": "Grouped by shell and plane from TLE"
  },
  {
    "OBJECT_NAME": "STARLINK-32732",
    "OBJECT_ID": "25003B",
    "EPOCH": "2025-11-11T08:00:03.000384",
    "MEAN_MOTION": 15.27559349,
    "ECCENTRICITY": 0.000194,
    "INCLINATION": 43.0017,
    "RA_OF_ASC_NODE": 237.0133,
    "ARG_OF_PERICENTER": 270.7176,
    "MEAN_ANOMALY": 133.4832,
    "EPHEMERIS_TYPE": 0,
    "CLASSIFICATION_TYPE": "U",
    "NORAD_CAT_ID": 62488,
    "ELEMENT_SET_NO": 999,
    "REV_AT_EPOCH": 573,
    "BSTAR": 0.0017891,
    "MEAN_MOTION_DOT": 0.00049269,
    "MEAN_MOTION_DDOT": 0.0,
    "TLE_LINE1": "1 62488U 25003B   25315.33336806  .00049269  00000+0  17891-2 0  9993",
    "TLE_LINE2": "2 62488  43.0017 237.0133 0001940 270.7176 133.4832 15.27559349  5737",
    "COMMENT": "Grouped by shell and plane from TLE"
  },
  {
    "OBJECT_NAME": "STARLINK-32328",
    "OBJECT_ID": "25003C",
    "EPOCH": "2025-11-11T05:50:29.856768",
    "MEAN_MOTION": 15.27625143,
    "ECCENTRICITY": 0.0001601,
    "INCLINATION": 43.0019,
    "RA_OF_ASC_NODE": 238.1618,
    "ARG_OF_PERICENTER": 265.6119,
    "MEAN_ANOMALY": 94.455,
    "EPHEMERIS_TYPE": 0,
    "CLASSIFICATION_TYPE": "U",
    "NORAD_CAT_ID": 62489,
    "ELEMENT_SET_NO": 999,
    "REV_AT_EPOCH": 4855,
    "BSTAR": 0.0013980000000000002,
    "MEAN_MOTION_DOT": 0.00038463,
    "MEAN_MOTION_DDOT": 0.0,
    "TLE_LINE1": "1 62489U 25003C   25315.24340112  .00038463  00000+0  13980-2 0  9998",
    "TLE_LINE2": "2 62489  43.0019 238.1618 0001601 265.6119  94.4550 15.27625143 48550",
    "COMMENT": "Grouped by shell and plane from TLE"
  },
  {
    "OBJECT_NAME": "STARLINK-32332",
    "OBJECT_ID": "25003D",
    "EPOCH": "2025-11-11T03:59:41.441568",
    "MEAN_MOTION": 15.27567203,
    "ECCENTRICITY": 0.000175,
    "INCLINATION": 43.0004,
    "RA_OF_ASC_NODE": 238.446,
    "ARG_OF_PERICENTER": 262.5098,
    "MEAN_ANOMALY": 97.5554,
    "EPHEMERIS_TYPE": 0,
    "CLASSIFICATION_TYPE": "U",
    "NORAD_CAT_ID": 62490,
    "ELEMENT_SET_NO": 999,
    "REV_AT_EPOCH": 4852,
    "BSTAR": 0.0,
    "MEAN_MOTION_DOT": -6.03e-06,
    "MEAN_MOTION_DDOT": 0.0,
    "TLE_LINE1": "1 62490U 25003D   25315.16645187 -.00000603  00000+0 -12387-4 0  9990",
    "TLE_LINE2": "2 62490  43.0004 238.4460 0001750 262.5098  97.5554 15.27567203 48528",
    "COMMENT": "Grouped by shell and plane from TLE"
  },
  {
    "OBJECT_NAME": "STARLINK-32717",
    "OBJECT_ID": "25003E",
    "EPOCH": "2025-11-11T03:31:56.692416",
    "MEAN_MOTION": 15.27628993,
    "ECCENTRICITY": 0.0001421,
    "INCLINATION": 43.0003,
    "RA_OF_ASC_NODE": 238.2974,
    "ARG_OF_PERICENTER": 268.0405,
    "MEAN_ANOMALY": 92.0284,
    "EPHEMERIS_TYPE": 0,
    "CLASSIFICATION_TYPE": "U",
    "NORAD_CAT_ID": 62491,
    "ELEMENT_SET_NO": 999,
    "REV_AT_EPOCH": 4854,
    "BSTAR": 0.0015067,
    "MEAN_MOTION_DOT": 0.00041494,
    "MEAN_MOTION_DDOT": 0.0,
    "TLE_LINE1": "1 62491U 25003E   25315.14718394  .00041494  00000+0  15067-2 0  9997",
    "TLE_LINE2": "2 62491  43.0003 238.2974 0001421 268.0405  92.0284 15.27628993 48540",
    "COMMENT": "Grouped by shell and plane from TLE"
  },
  {
    "OBJECT_NAME": "STARLINK-32757",
    "OBJECT_ID": "25003F",
    "EPOCH": "2025-11-11T04:08:56.722272",
    "MEAN_MOTION": 15.27638793,
    "ECCENTRICITY": 0.000164,
    "INCLINATION": 43.0006,
    "RA_OF_ASC_NODE": 238.4923,
    "ARG_OF_PERICENTER": 262.2447,
    "MEAN_ANOMALY": 97.8218,
    "EPHEMERIS_TYPE": 0,
    "CLASSIFICATION_TYPE": "U",
    "NORAD_CAT_ID": 62492,
    "ELEMENT_SET_NO": 999,
    "REV_AT_EPOCH": 4842,
    "BSTAR": 0.0015504000000000002,
    "MEAN_MOTION_DOT": 0.00042726,
    "MEAN_MOTION_DDOT": 0.0,
    "TLE_LINE1": "1 62492U 25003F   25315.17287873  .00042726  00000+0  15504-2 0  9999",
    "TLE_LINE2": "2 62492  43.0006 238.4923 0001640 262.2447  97.8218 15.27638793 48421",
    "COMMENT": "Grouped by shell and plane from TLE"
  },
  {
    "OBJECT_NAME": "STARLINK-32731",
    "OBJECT_ID": "25003G",
    "EPOCH": "2025-11-11T04:27:26.795520",
    "MEAN_MOTION": 15.27605149,
    "ECCENTRICITY": 0.0001197,
    "INCLINATION": 43.0,
    "RA_OF_ASC_NODE": 238.5933,
    "ARG_OF_PERICENTER": 260.1579,
    "MEAN_ANOMALY": 99.9137,
    "EPHEMERIS_TYPE": 0,
    "CLASSIFICATION_TYPE": "U",
    "NORAD_CAT_ID": 62493,
    "ELEMENT_SET_NO": 999,
    "REV_AT_EPOCH": 4854,
    "BSTAR": 0.002201,
    "MEAN_MOTION_DOT": 0.00060852,
    "MEAN_MOTION_DDOT": 0.0,
    "TLE_LINE1": "1 62493U 25003G   25315.18572680  .00060852  00000+0  22010-2 0  9994",
    "TLE_LINE2": "2 62493  43.0000 238.5933 0001197 260.1579  99.9137 15.27605149 48543",
    "COMMENT": "Grouped by shell and plane from TLE"
  }
]